ORBCOMM-X               
1 21576U 91050C   26005.10922612  .00000495  00000+0  15913-3 0  9991
2 21576  98.3196  72.3515 0002581 305.9578  54.1373 14.43458640811243
ORBCOMM FM01            
1 23545U 95017A   26005.13125048  .00008777  00000+0  83890-3 0  9997
2 23545  69.9636 289.4121 0004682 318.8946  41.1857 14.93530431642625
ORBCOMM FM02            
1 23546U 95017B   26005.11359067  .00013189  00000+0  12017-2 0  9991
2 23546  69.9652 307.9372 0005873 330.0219  30.0601 14.95259018642298
ORBCOMM FM08            
1 25112U 97084A   26005.03150164  .00002376  00000+0  69035-3 0  9995
2 25112  45.0130 118.3250 0007794 198.5752 161.4816 14.46702134470594
ORBCOMM FM10            
1 25113U 97084B   26005.04459468  .00002087  00000+0  61474-3 0  9994
2 25113  45.0139 121.0209 0005733 171.8261 188.2685 14.46437679645739
ORBCOMM FM11            
1 25114U 97084C   26005.01568545  .00002397  00000+0  70369-3 0  9996
2 25114  45.0125 122.1674 0006536 170.7610 189.3363 14.46185813470686
ORBCOMM FM12            
1 25115U 97084D   26005.04436137  .00002218  00000+0  65387-3 0  9997
2 25115  45.0130 121.7585 0005625 170.7973 189.2983 14.46206290470487
ORBCOMM FM09            
1 25116U 97084E   26005.02705344  .00002388  00000+0  70328-3 0  9994
2 25116  45.0139 122.9989 0006443 157.7153 202.3980 14.46041085470687
